[{"OBJECT_NAME":"SL-14 R/B","OBJECT_ID":"1986-006B","EPOCH":"2026-03-31T02:57:43.523424","MEAN_MOTION":14.86850999,"ECCENTRICITY":0.00759752,"INCLINATION":82.5254,"RA_OF_ASC_NODE":239.56,"ARG_OF_PERICENTER":200.6267,"MEAN_ANOMALY":159.188,"EPHEMERIS_TYPE":0,"CLASSIFICATION_TYPE":"U","NORAD_CAT_ID":16496,"ELEMENT_SET_NO":999,"REV_AT_EPOCH":15239,"BSTAR":0.00012744254,"MEAN_MOTION_DOT":1.224e-5,"MEAN_MOTION_DDOT":0},{"OBJECT_NAME":"COSMOS 1743","OBJECT_ID":"1986-034A","EPOCH":"2026-03-31T03:19:56.454240","MEAN_MOTION":15.60393696,"ECCENTRICITY":0.0004887,"INCLINATION":82.5305,"RA_OF_ASC_NODE":51.2883,"ARG_OF_PERICENTER":165.1307,"MEAN_ANOMALY":195.0094,"EPHEMERIS_TYPE":0,"CLASSIFICATION_TYPE":"U","NORAD_CAT_ID":16719,"ELEMENT_SET_NO":999,"REV_AT_EPOCH":18359,"BSTAR":0.0007196,"MEAN_MOTION_DOT":0.00059362,"MEAN_MOTION_DDOT":0},{"OBJECT_NAME":"SL-14 R/B","OBJECT_ID":"1986-046B","EPOCH":"2026-03-31T03:48:35.715744","MEAN_MOTION":14.85611918,"ECCENTRICITY":0.00237475,"INCLINATION":82.4807,"RA_OF_ASC_NODE":59.8913,"ARG_OF_PERICENTER":153.5509,"MEAN_ANOMALY":206.6925,"EPHEMERIS_TYPE":0,"CLASSIFICATION_TYPE":"U","NORAD_CAT_ID":16792,"ELEMENT_SET_NO":999,"REV_AT_EPOCH":12959,"BSTAR":7.1632772e-5,"MEAN_MOTION_DOT":6.47e-6,"MEAN_MOTION_DDOT":0},{"OBJECT_NAME":"SL-14 R/B","OBJECT_ID":"1986-055B","EPOCH":"2026-03-31T03:43:10.176960","MEAN_MOTION":14.85662249,"ECCENTRICITY":0.00173276,"INCLINATION":82.5168,"RA_OF_ASC_NODE":106.4927,"ARG_OF_PERICENTER":260.4085,"MEAN_ANOMALY":168.6196,"EPHEMERIS_TYPE":0,"CLASSIFICATION_TYPE":"U","NORAD_CAT_ID":16882,"ELEMENT_SET_NO":999,"REV_AT_EPOCH":12255,"BSTAR":6.7109468e-5,"MEAN_MOTION_DOT":6.07e-6,"MEAN_MOTION_DDOT":0},{"OBJECT_NAME":"AJISAI (EGS)","OBJECT_ID":"1986-061A","EPOCH":"2026-03-31T06:13:00.414048","MEAN_MOTION":12.44515624,"ECCENTRICITY":0.00113399,"INCLINATION":50.0116,"RA_OF_ASC_NODE":27.0211,"ARG_OF_PERICENTER":342.5826,"MEAN_ANOMALY":182.1487,"EPHEMERIS_TYPE":0,"CLASSIFICATION_TYPE":"U","NORAD_CAT_ID":16908,"ELEMENT_SET_NO":999,"REV_AT_EPOCH":47068,"BSTAR":-3.2392982e-5,"MEAN_MOTION_DOT":-1.02e-6,"MEAN_MOTION_DDOT":0},{"OBJECT_NAME":"SL-14 R/B","OBJECT_ID":"1987-024B","EPOCH":"2026-03-31T04:25:25.374144","MEAN_MOTION":14.86153417,"ECCENTRICITY":0.00180261,"INCLINATION":82.5256,"RA_OF_ASC_NODE":72.555,"ARG_OF_PERICENTER":184.6239,"MEAN_ANOMALY":175.4814,"EPHEMERIS_TYPE":0,"CLASSIFICATION_TYPE":"U","NORAD_CAT_ID":17567,"ELEMENT_SET_NO":999,"REV_AT_EPOCH":9132,"BSTAR":7.2525354e-5,"MEAN_MOTION_DOT":6.62e-6,"MEAN_MOTION_DDOT":0},{"OBJECT_NAME":"COSMOS 1833","OBJECT_ID":"1987-027A","EPOCH":"2026-03-31T05:43:52.859136","MEAN_MOTION":14.13046338,"ECCENTRICITY":0.00231487,"INCLINATION":70.917,"RA_OF_ASC_NODE":280.7247,"ARG_OF_PERICENTER":182.6504,"MEAN_ANOMALY":177.4499,"EPHEMERIS_TYPE":0,"CLASSIFICATION_TYPE":"U","NORAD_CAT_ID":17589,"ELEMENT_SET_NO":999,"REV_AT_EPOCH":1336,"BSTAR":-0.00012816822,"MEAN_MOTION_DOT":-2.88e-6,"MEAN_MOTION_DDOT":0},{"OBJECT_NAME":"SL-16 R/B","OBJECT_ID":"1987-027B","EPOCH":"2026-03-31T01:54:17.898912","MEAN_MOTION":14.17166223,"ECCENTRICITY":0.00028768,"INCLINATION":71.0018,"RA_OF_ASC_NODE":231.4176,"ARG_OF_PERICENTER":89.6471,"MEAN_ANOMALY":270.4982,"EPHEMERIS_TYPE":0,"CLASSIFICATION_TYPE":"U","NORAD_CAT_ID":17590,"ELEMENT_SET_NO":999,"REV_AT_EPOCH":1837,"BSTAR":9.1501591e-5,"MEAN_MOTION_DOT":1.37e-6,"MEAN_MOTION_DDOT":0},{"OBJECT_NAME":"SL-14 R/B","OBJECT_ID":"1987-038B","EPOCH":"2026-03-31T06:11:04.291584","MEAN_MOTION":14.85389573,"ECCENTRICITY":0.00207686,"INCLINATION":82.4977,"RA_OF_ASC_NODE":276.4835,"ARG_OF_PERICENTER":93.198,"MEAN_ANOMALY":267.1613,"EPHEMERIS_TYPE":0,"CLASSIFICATION_TYPE":"U","NORAD_CAT_ID":17912,"ELEMENT_SET_NO":999,"REV_AT_EPOCH":8243,"BSTAR":7.3825272e-5,"MEAN_MOTION_DOT":6.62e-6,"MEAN_MOTION_DDOT":0},{"OBJECT_NAME":"COSMOS 1844","OBJECT_ID":"1987-041A","EPOCH":"2026-03-31T04:19:39.507168","MEAN_MOTION":14.14558631,"ECCENTRICITY":0.00312064,"INCLINATION":70.9016,"RA_OF_ASC_NODE":348.8483,"ARG_OF_PERICENTER":346.4149,"MEAN_ANOMALY":13.6129,"EPHEMERIS_TYPE":0,"CLASSIFICATION_TYPE":"U","NORAD_CAT_ID":17973,"ELEMENT_SET_NO":999,"REV_AT_EPOCH":662,"BSTAR":0.00023961381,"MEAN_MOTION_DOT":4.14e-6,"MEAN_MOTION_DDOT":0},{"OBJECT_NAME":"SL-14 R/B","OBJECT_ID":"1987-055B","EPOCH":"2026-03-31T03:55:16.630752","MEAN_MOTION":14.85650956,"ECCENTRICITY":0.00193883,"INCLINATION":82.5003,"RA_OF_ASC_NODE":328.7956,"ARG_OF_PERICENTER":305.273,"MEAN_ANOMALY":54.6672,"EPHEMERIS_TYPE":0,"CLASSIFICATION_TYPE":"U","NORAD_CAT_ID":18153,"ELEMENT_SET_NO":999,"REV_AT_EPOCH":7312,"BSTAR":6.111169e-5,"MEAN_MOTION_DOT":5.55e-6,"MEAN_MOTION_DDOT":0},{"OBJECT_NAME":"COSMOS 1867","OBJECT_ID":"1987-060A","EPOCH":"2026-03-30T19:39:11.315808","MEAN_MOTION":14.31506381,"ECCENTRICITY":0.00148619,"INCLINATION":65.0097,"RA_OF_ASC_NODE":247.5298,"ARG_OF_PERICENTER":279.9032,"MEAN_ANOMALY":80.0374,"EPHEMERIS_TYPE":0,"CLASSIFICATION_TYPE":"U","NORAD_CAT_ID":18187,"ELEMENT_SET_NO":999,"REV_AT_EPOCH":2296,"BSTAR":2.8496524e-5,"MEAN_MOTION_DOT":-2.4e-7,"MEAN_MOTION_DDOT":0},{"OBJECT_NAME":"SL-14 R/B","OBJECT_ID":"1988-001B","EPOCH":"2026-03-30T22:59:45.860352","MEAN_MOTION":14.85551379,"ECCENTRICITY":0.0018519,"INCLINATION":82.5159,"RA_OF_ASC_NODE":175.363,"ARG_OF_PERICENTER":163.5694,"MEAN_ANOMALY":196.6127,"EPHEMERIS_TYPE":0,"CLASSIFICATION_TYPE":"U","NORAD_CAT_ID":18749,"ELEMENT_SET_NO":999,"REV_AT_EPOCH":4518,"BSTAR":6.7201e-5,"MEAN_MOTION_DOT":6.07e-6,"MEAN_MOTION_DDOT":0},{"OBJECT_NAME":"COSMOS 1933","OBJECT_ID":"1988-020A","EPOCH":"2026-03-30T21:11:11.278752","MEAN_MOTION":15.18186716,"ECCENTRICITY":0.0005342,"INCLINATION":82.5121,"RA_OF_ASC_NODE":229.9384,"ARG_OF_PERICENTER":118.3655,"MEAN_ANOMALY":241.8118,"EPHEMERIS_TYPE":0,"CLASSIFICATION_TYPE":"U","NORAD_CAT_ID":18958,"ELEMENT_SET_NO":999,"REV_AT_EPOCH":5344,"BSTAR":0.00030617,"MEAN_MOTION_DOT":6.289e-5,"MEAN_MOTION_DDOT":0},{"OBJECT_NAME":"SL-3 R/B","OBJECT_ID":"1988-032B","EPOCH":"2026-03-31T06:13:05.125440","MEAN_MOTION":15.20148548,"ECCENTRICITY":0.00266237,"INCLINATION":97.5211,"RA_OF_ASC_NODE":73.4409,"ARG_OF_PERICENTER":155.022,"MEAN_ANOMALY":205.231,"EPHEMERIS_TYPE":0,"CLASSIFICATION_TYPE":"U","NORAD_CAT_ID":19046,"ELEMENT_SET_NO":999,"REV_AT_EPOCH":5538,"BSTAR":0.00027471092,"MEAN_MOTION_DOT":5.928e-5,"MEAN_MOTION_DDOT":0},{"OBJECT_NAME":"SL-16 R/B","OBJECT_ID":"1988-039B","EPOCH":"2026-03-31T06:14:24.578880","MEAN_MOTION":14.19620038,"ECCENTRICITY":0.00237313,"INCLINATION":71.0171,"RA_OF_ASC_NODE":22.9362,"ARG_OF_PERICENTER":303.497,"MEAN_ANOMALY":56.3888,"EPHEMERIS_TYPE":0,"CLASSIFICATION_TYPE":"U","NORAD_CAT_ID":19120,"ELEMENT_SET_NO":999,"REV_AT_EPOCH":96144,"BSTAR":7.3800359e-5,"MEAN_MOTION_DOT":1.08e-6,"MEAN_MOTION_DDOT":0},{"OBJECT_NAME":"COSMOS 1953","OBJECT_ID":"1988-050A","EPOCH":"2026-03-31T03:51:58.150944","MEAN_MOTION":15.2886016,"ECCENTRICITY":0.0012214,"INCLINATION":82.5073,"RA_OF_ASC_NODE":136.6473,"ARG_OF_PERICENTER":55.6435,"MEAN_ANOMALY":304.5958,"EPHEMERIS_TYPE":0,"CLASSIFICATION_TYPE":"U","NORAD_CAT_ID":19210,"ELEMENT_SET_NO":999,"REV_AT_EPOCH":4106,"BSTAR":0.00031871,"MEAN_MOTION_DOT":8.988e-5,"MEAN_MOTION_DDOT":0}]
