SL-14 R/B               
1 16496U 86006B   26090.12342041  .00001224  00000+0  12744-3 0  9999
2 16496  82.5254 239.5600 0075975 200.6267 159.1880 14.86850999152396
COSMOS 1743             
1 16719U 86034A   26090.13884785  .00059362  00000+0  71960-3 0  9996
2 16719  82.5305  51.2883 0004887 165.1307 195.0094 15.60393696183598
SL-14 R/B               
1 16792U 86046B   26090.15874671  .00000647  00000+0  71633-4 0  9995
2 16792  82.4807  59.8913 0023747 153.5509 206.6925 14.85611918129592
SL-14 R/B               
1 16882U 86055B   26090.15497890  .00000607  00000+0  67109-4 0  9998
2 16882  82.5168 106.4927 0017327 260.4085 168.6196 14.85662249122550
AJISAI (EGS)            
1 16908U 86061A   26090.25903257 -.00000102  00000+0 -32393-4 0  9993
2 16908  50.0116  27.0211 0011339 342.5826 182.1487 12.44515624470689
SL-14 R/B               
1 17567U 87024B   26090.18432146  .00000662  00000+0  72525-4 0  9991
2 17567  82.5256  72.5550 0018026 184.6239 175.4814 14.86153417 91325
COSMOS 1833             
1 17589U 87027A   26090.23880624 -.00000288  00000+0 -12817-3 0  9995
2 17589  70.9170 280.7247 0023148 182.6504 177.4499 14.13046338 13367
SL-16 R/B               
1 17590U 87027B   26090.07937383  .00000137  00000+0  91502-4 0  9994
2 17590  71.0018 231.4176 0002876  89.6471 270.4982 14.17166223 18377
SL-14 R/B               
1 17912U 87038B   26090.25768856  .00000662  00000+0  73825-4 0  9992
2 17912  82.4977 276.4835 0020768  93.1980 267.1613 14.85389573 82433
COSMOS 1844             
1 17973U 87041A   26090.18031837  .00000414  00000+0  23961-3 0  9997
2 17973  70.9016 348.8483 0031206 346.4149  13.6129 14.14558631  6627
SL-14 R/B               
1 18153U 87055B   26090.16338693  .00000555  00000+0  61112-4 0  9998
2 18153  82.5003 328.7956 0019388 305.2730  54.6672 14.85650956 73129
COSMOS 1867             
1 18187U 87060A   26089.81888097 -.00000024  00000+0  28497-4 0  9990
2 18187  65.0097 247.5298 0014861 279.9032  80.0374 14.31506381 22966
SL-14 R/B               
1 18749U 88001B   26089.95816968  .00000607  00000+0  67201-4 0  9995
2 18749  82.5159 175.3630 0018519 163.5694 196.6127 14.85551379 45182
COSMOS 1933             
1 18958U 88020A   26089.88276943  .00006289  00000+0  30617-3 0  9995
2 18958  82.5121 229.9384 0005342 118.3655 241.8118 15.18186716 53447
SL-3 R/B                
1 19046U 88032B   26090.25908710  .00005928  00000+0  27471-3 0  9997
2 19046  97.5211  73.4409 0026623 155.0220 205.2310 15.20148548 55380
SL-16 R/B               
1 19120U 88039B   26090.26000670  .00000108  00000+0  73800-4 0  9999
2 19120  71.0171  22.9362 0023731 303.4970  56.3888 14.19620038961444
COSMOS 1953             
1 19210U 88050A   26090.16108971  .00008988  00000+0  31871-3 0  9999
2 19210  82.5073 136.6473 0012214  55.6435 304.5958 15.28860160 41060
